[{"OBJECT_NAME":"STARLINK-31718","OBJECT_ID":"2024-074Y","EPOCH":"2026-03-09T02:42:40.873248","MEAN_MOTION":15.27570812,"ECCENTRICITY":0.00014893,"INCLINATION":43.0002,"RA_OF_ASC_NODE":346.9961,"ARG_OF_PERICENTER":264.0794,"MEAN_ANOMALY":95.9888,"EPHEMERIS_TYPE":0,"CLASSIFICATION_TYPE":"U","NORAD_CAT_ID":59556,"ELEMENT_SET_NO":999,"REV_AT_EPOCH":10592,"BSTAR":-6.6303972e-5,"MEAN_MOTION_DOT":-2.086e-5,"MEAN_MOTION_DDOT":0},{"OBJECT_NAME":"KUIPER-00266","OBJECT_ID":"2026-030AB","EPOCH":"2026-03-08T21:54:37.698048","MEAN_MOTION":15.30874235,"ECCENTRICITY":0.0022313,"INCLINATION":51.8807,"RA_OF_ASC_NODE":223.5904,"ARG_OF_PERICENTER":72.5291,"MEAN_ANOMALY":287.8129,"EPHEMERIS_TYPE":0,"CLASSIFICATION_TYPE":"U","NORAD_CAT_ID":67789,"ELEMENT_SET_NO":999,"REV_AT_EPOCH":496,"BSTAR":0.00098219753,"MEAN_MOTION_DOT":0.00029701,"MEAN_MOTION_DDOT":0}]
