STARLINK-31718          
1 59556U 24074Y   26068.11297307 -.00002086  00000+0 -66304-4 0  9999
2 59556  43.0002 346.9961 0001489 264.0794  95.9888 15.27570812105925
KUIPER-00266            
1 67789U 26030AB  26067.91293632  .00029701  00000+0  98220-3 0  9996
2 67789  51.8807 223.5904 0022313  72.5291 287.8129 15.30874235  4964
